ALOS-4 (DAICHI-4)       
1 60182U 24123A   24275.85418335  .00007843  00000+0  10557-2 0  9997
2 60182  97.9221  10.9771 0001484  98.9382 261.1998 14.79478184 13711
